{"type": "FeatureCollection", "features": [{"type": "Feature", "properties": {"name": "AFRICAN AMERICAN"}, "geometry": {"type": "Point", "coordinates": [-73.86233820672378, 40.736309177768874]}}, {"type": "Feature", "properties": {"name": "AFRICAN AMERICAN"}, "geometry": {"type": "Point", "coordinates": [-73.93525332599046, 40.824514036016026]}}, {"type": "Feature", "properties": {"name": "AFRICAN AMERICAN"}, "geometry": {"type": "Point", "coordinates": [-73.98820513060357, 40.57652455707491]}}, {"type": "Feature", "properties": {"name": "ASIAN INDIAN"}, "geometry": {"type": "Point", "coordinates": [-73.71963076214026, 40.73855963658765]}}, {"type": "Feature", "properties": {"name": "ASIAN INDIAN"}, "geometry": {"type": "Point", "coordinates": [-73.97467428913993, 40.74632180751517]}}, {"type": "Feature", "properties": {"name": "BANGLADESHI"}, "geometry": {"type": "Point", "coordinates": [-73.9006094915721, 40.74719024419073]}}, {"type": "Feature", "properties": {"name": "BANGLADESHI"}, "geometry": {"type": "Point", "coordinates": [-73.8050973027726, 40.7033060485499]}}, {"type": "Feature", "properties": {"name": "CHINESE"}, "geometry": {"type": "Point", "coordinates": [-73.98919418258517, 40.710090069484096]}}, {"type": "Feature", "properties": {"name": "CHINESE"}, "geometry": {"type": "Point", "coordinates": [-73.82232232457682, 40.733892314772035]}}, {"type": "Feature", "properties": {"name": "CHINESE"}, "geometry": {"type": "Point", "coordinates": [-74.09738954108116, 40.57372258755763]}}, {"type": "Feature", "properties": {"name": "COLOMBIAN"}, "geometry": {"type": "Point", "coordinates": [-73.88259331444675, 40.75221981769808]}}, {"type": "Feature", "properties": {"name": "DOMINICAN"}, "geometry": {"type": "Point", "coordinates": [-73.94206641971304, 40.83663979818646]}}, {"type": "Feature", "properties": {"name": "DOMINICAN"}, "geometry": {"type": "Point", "coordinates": [-73.94511842850012, 40.754992888396345]}}, {"type": "Feature", "properties": {"name": "DOMINICAN"}, "geometry": {"type": "Point", "coordinates": [-73.75541905085767, 40.608547128207206]}}, {"type": "Feature", "properties": {"name": "ECUADORIAN"}, "geometry": {"type": "Point", "coordinates": [-73.88486708485088, 40.75117483191841]}}, {"type": "Feature", "properties": {"name": "ECUADORIAN"}, "geometry": {"type": "Point", "coordinates": [-73.76729429366006, 40.719780688464255]}}, {"type": "Feature", "properties": {"name": "ENGLISH"}, "geometry": {"type": "Point", "coordinates": [-73.96649493720267, 40.708526982508495]}}, {"type": "Feature", "properties": {"name": "ENGLISH"}, "geometry": {"type": "Point", "coordinates": [-73.97315014011652, 40.80183644453055]}}, {"type": "Feature", "properties": {"name": "GERMAN"}, "geometry": {"type": "Point", "coordinates": [-73.9806693155836, 40.79165990817677]}}, {"type": "Feature", "properties": {"name": "GERMAN"}, "geometry": {"type": "Point", "coordinates": [-73.96328015962, 40.71806542811598]}}, {"type": "Feature", "properties": {"name": "GUYANESE"}, "geometry": {"type": "Point", "coordinates": [-73.7464891771641, 40.71906495894003]}}, {"type": "Feature", "properties": {"name": "HAITIAN"}, "geometry": {"type": "Point", "coordinates": [-73.9614290881978, 40.64279207567863]}}, {"type": "Feature", "properties": {"name": "HAITIAN"}, "geometry": {"type": "Point", "coordinates": [-73.74337016671751, 40.712827161507235]}}, {"type": "Feature", "properties": {"name": "HUNGARIAN"}, "geometry": {"type": "Point", "coordinates": [-73.9567406426716, 40.6967182487762]}}, {"type": "Feature", "properties": {"name": "IRISH"}, "geometry": {"type": "Point", "coordinates": [-73.97135565180828, 40.72894142336216]}}, {"type": "Feature", "properties": {"name": "IRISH"}, "geometry": {"type": "Point", "coordinates": [-73.98621911764825, 40.63609817895717]}}, {"type": "Feature", "properties": {"name": "IRISH"}, "geometry": {"type": "Point", "coordinates": [-73.91590584465283, 40.87931891049058]}}, {"type": "Feature", "properties": {"name": "ITALIAN"}, "geometry": {"type": "Point", "coordinates": [-73.95381499958098, 40.77492001824884]}}, {"type": "Feature", "properties": {"name": "ITALIAN"}, "geometry": {"type": "Point", "coordinates": [-74.01704910922278, 40.70851834403841]}}, {"type": "Feature", "properties": {"name": "ITALIAN"}, "geometry": {"type": "Point", "coordinates": [-73.84494063818225, 40.656410214503]}}, {"type": "Feature", "properties": {"name": "JAMAICAN"}, "geometry": {"type": "Point", "coordinates": [-73.75749284812505, 40.598123744996144]}}, {"type": "Feature", "properties": {"name": "JAMAICAN"}, "geometry": {"type": "Point", "coordinates": [-73.78100018282939, 40.67123918557572]}}, {"type": "Feature", "properties": {"name": "MEXICAN"}, "geometry": {"type": "Point", "coordinates": [-73.88023490888146, 40.75167667899538]}}, {"type": "Feature", "properties": {"name": "MEXICAN"}, "geometry": {"type": "Point", "coordinates": [-73.91101282969366, 40.84018112488728]}}, {"type": "Feature", "properties": {"name": "PAKISTANI"}, "geometry": {"type": "Point", "coordinates": [-73.74139255461505, 40.59845689650875]}}, {"type": "Feature", "properties": {"name": "POLISH"}, "geometry": {"type": "Point", "coordinates": [-73.96313570841818, 40.76214822907492]}}, {"type": "Feature", "properties": {"name": "PUERTO RICAN"}, "geometry": {"type": "Point", "coordinates": [-73.96426070705624, 40.79732768248952]}}, {"type": "Feature", "properties": {"name": "PUERTO RICAN"}, "geometry": {"type": "Point", "coordinates": [-73.88319314344918, 40.85245112073392]}}, {"type": "Feature", "properties": {"name": "PUERTO RICAN"}, "geometry": {"type": "Point", "coordinates": [-73.98182130949185, 40.71916683249406]}}, {"type": "Feature", "properties": {"name": "RUSSIAN"}, "geometry": {"type": "Point", "coordinates": [-73.96938827764967, 40.79030500293602]}}, {"type": "Feature", "properties": {"name": "RUSSIAN"}, "geometry": {"type": "Point", "coordinates": [-73.90865974880771, 40.60872095646843]}}, {"type": "Feature", "properties": {"name": "SYRIAN"}, "geometry": {"type": "Point", "coordinates": [-73.9691960363405, 40.59289959922329]}}, {"type": "Feature", "properties": {"name": "UKRAINIAN"}, "geometry": {"type": "Point", "coordinates": [-73.97023368756216, 40.57783474223439]}}, {"type": "Feature", "properties": {"name": "WEST INDIAN"}, "geometry": {"type": "Point", "coordinates": [-73.98053349860464, 40.63052484326839]}}]}